NORAD_CAT_ID,OBJECT_NAME,OBJECT_TYPE,EPOCH,MEAN_MOTION,ECCENTRICITY,INCLINATION,RA_OF_ASC_NODE,ARG_OF_PERICENTER,MEAN_ANOMALY,BSTAR,MEAN_MOTION_DOT,MEAN_MOTION_DDOT,TLE_LINE0,TLE_LINE1,TLE_LINE2,SEMIMAJOR_AXIS,PERIOD,APOGEE,PERIGEE,DECAYED
53905.0,STARLINK-5003,PAYLOAD,2023-09-22 13:25:46,15.08853015,0.0001562,53.2176,30.6922,77.9643,282.1524,0.00023607,3.472e-05,0.0,0 STARLINK-5003,1 53905U 22119V   23265.55956030  .00003472  00000-0  23607-3 0  9995,2 53905  53.2176  30.6922 0001562  77.9643 282.1524 15.08853015 56089,6917.841,95.437,540.786,538.625,0.0
53905.0,STARLINK-5003,PAYLOAD,2023-09-22 15:01:09,15.08848351,0.0001658,53.2181,30.3957,70.1376,289.9795,0.00031485,4.727e-05,0.0,0 STARLINK-5003,1 53905U 22119V   23265.62580302  .00004727  00000-0  31485-3 0  9995,2 53905  53.2181  30.3957 0001658  70.1376 289.9795 15.08848351 55670,6917.855,95.437,540.867,538.573,0.0
53905.0,STARLINK-5003,PAYLOAD,2023-09-23 13:16:33,15.08842484,0.000141,53.2187,26.2315,81.9585,278.1567,2.2304e-05,6.7e-07,0.0,0 STARLINK-5003,1 53905U 22119V   23266.55316093  .00000067  00000-0  22304-4 0  9996,2 53905  53.2187  26.2315 0001410  81.9585 278.1567 15.08842484 56237,6917.873,95.437,540.713,538.762,0.0
53905.0,STARLINK-5003,PAYLOAD,2023-09-23 18:02:42,15.08851426,0.0001479,53.2192,25.3381,94.6805,265.4356,-8.0294e-05,-1.566e-05,0.0,0 STARLINK-5003,1 53905U 22119V   23266.75187759 -.00001566  00000-0 -80294-4 0  9992,2 53905  53.2192  25.3381 0001479  94.6805 265.4356 15.08851426 55844,6917.845,95.437,540.734,538.687,0.0
53905.0,STARLINK-5003,PAYLOAD,2023-09-24 08:21:11,15.08836088,0.0001362,53.2189,22.6646,84.795,275.3198,5.4082e-06,-2.02e-06,0.0,0 STARLINK-5003,1 53905U 22119V   23267.34804569 -.00000202  00000-0  54082-5 0  9995,2 53905  53.2189  22.6646 0001362  84.7950 275.3198 15.08836088 55937,6917.892,95.438,540.7,538.815,0.0
53905.0,STARLINK-5003,PAYLOAD,2023-09-24 13:07:19,15.08844219,0.0001509,53.2185,21.7703,99.135,260.9813,8.6556e-05,1.09e-05,0.0,0 STARLINK-5003,1 53905U 22119V   23267.54675836  .00001090  00000-0  86556-4 0  9995,2 53905  53.2185  21.7703 0001509  99.1350 260.9813 15.08844219 56383,6917.867,95.437,540.776,538.689,0.0
53905.0,STARLINK-5003,PAYLOAD,2023-09-24 14:42:43,15.08844186,0.0001557,53.2191,21.4759,88.4999,271.6171,3.9685e-05,3.44e-06,0.0,0 STARLINK-5003,1 53905U 22119V   23267.61299972  .00000344  00000-0  39685-4 0  9998,2 53905  53.2191  21.4759 0001557  88.4999 271.6171 15.08844186 55974,6917.868,95.437,540.81,538.655,0.0
53905.0,STARLINK-5003,PAYLOAD,2023-09-25 06:36:34,15.08840048,0.0001373,53.2187,18.5011,91.0842,269.0308,5.8056e-05,6.36e-06,0.0,0 STARLINK-5003,1 53905U 22119V   23268.27540297  .00000636  00000-0  58056-4 0  9997,2 53905  53.2187  18.5011 0001373  91.0842 269.0308 15.08840048 56078,6917.88,95.438,540.695,538.795,0.0
53905.0,STARLINK-5003,PAYLOAD,2023-09-25 14:33:29,15.08849137,0.000129,53.2184,17.0173,101.6791,258.4346,0.00015182,2.13e-05,0.0,0 STARLINK-5003,1 53905U 22119V   23268.60659465  .00002130  00000-0  15182-3 0  9995,2 53905  53.2184  17.0173 0001290 101.6791 258.4346 15.08849137 56541,6917.852,95.437,540.61,538.825,0.0
53905.0,STARLINK-5003,PAYLOAD,2023-09-26 14:24:17,15.08835155,9.32e-05,53.2171,12.5572,76.265,283.8446,0.00010084,1.317e-05,0.0,0 STARLINK-5003,1 53905U 22119V   23269.60020648  .00001317  00000-0  10084-3 0  9993,2 53905  53.2171  12.5572 0000932  76.2650 283.8446 15.08835155 56697,6917.895,95.438,540.405,539.115,0.0
53905.0,STARLINK-5003,PAYLOAD,2023-09-26 17:35:03,15.08840536,0.0001392,53.2179,11.9592,93.4289,266.6863,5.5435e-05,5.94e-06,0.0,0 STARLINK-5003,1 53905U 22119V   23269.73268395  .00000594  00000-0  55435-4 0  9996,2 53905  53.2179  11.9592 0001392  93.4289 266.6863 15.08840536 56297,6917.879,95.438,540.707,538.781,0.0
53905.0,STARLINK-5003,PAYLOAD,2023-09-26 23:56:36,15.08834237,0.0001362,53.2175,10.7665,87.681,272.4338,4.1309e-05,3.69e-06,0.0,0 STARLINK-5003,1 53905U 22119V   23269.99764858  .00000369  00000-0  41309-4 0  9994,2 53905  53.2175  10.7665 0001362  87.6810 272.4338 15.08834237 56331,6917.898,95.438,540.705,538.821,0.0
53905.0,STARLINK-5003,PAYLOAD,2023-09-27 12:39:41,15.08845963,0.0001411,53.2184,8.3868,82.807,277.3083,5.3536e-05,5.64e-06,0.0,0 STARLINK-5003,1 53905U 22119V   23270.52756425  .00000564  00000-0  53536-4 0  9998,2 53905  53.2184   8.3868 0001411  82.8070 277.3083 15.08845963 56833,6917.862,95.437,540.703,538.751,0.0
53905.0,STARLINK-5003,PAYLOAD,2023-09-27 14:15:03,15.08855004,0.0001075,53.2177,8.0911,93.8147,266.2968,0.00016082,2.274e-05,0.0,0 STARLINK-5003,1 53905U 22119V   23270.59379591  .00002274  00000-0  16082-3 0  9994,2 53905  53.2177   8.0911 0001075  93.8147 266.2968 15.08855004 56425,6917.835,95.437,540.443,538.956,0.0
53905.0,STARLINK-5003,PAYLOAD,2023-09-28 10:55:06,15.08838236,0.0001452,53.2184,4.2232,71.0716,289.0433,0.00011551,1.551e-05,0.0,0 STARLINK-5003,1 53905U 22119V   23271.45493091  .00001551  00000-0  11551-3 0  9995,2 53905  53.2184   4.2232 0001452  71.0716 289.0433 15.08838236 56558,6917.886,95.438,540.755,538.746,0.0
53905.0,STARLINK-5003,PAYLOAD,2023-09-28 14:05:52,15.08842231,0.0001725,53.2193,3.6287,63.541,296.5759,0.00018449,2.649e-05,0.0,0 STARLINK-5003,1 53905U 22119V   23271.58741048  .00002649  00000-0  18449-3 0  9999,2 53905  53.2193   3.6287 0001725  63.5410 296.5759 15.08842231 56993,6917.874,95.437,540.932,538.545,0.0
53905.0,STARLINK-5003,PAYLOAD,2023-09-28 15:41:15,15.08844097,0.0001623,53.219,3.3312,66.8295,293.2868,0.00020739,3.014e-05,0.0,0 STARLINK-5003,1 53905U 22119V   23271.65364931  .00003014  00000-0  20739-3 0  9991,2 53905  53.2190   3.3312 0001623  66.8295 293.2868 15.08844097 57000,6917.868,95.437,540.856,538.61,0.0
53905.0,STARLINK-5003,PAYLOAD,2023-09-29 12:21:15,15.0884502,0.0001496,53.2182,359.4706,106.3601,253.7555,1.5902e-05,-3.5e-07,0.0,0 STARLINK-5003,1 53905U 22119V   23272.51476707 -.00000035  00000-0  15902-4 0  9990,2 53905  53.2182 359.4706 0001496 106.3601 253.7555 15.08845020 57137,6917.865,95.437,540.765,538.695,0.0
53905.0,STARLINK-5003,PAYLOAD,2023-09-29 23:28:57,15.08850554,0.0002035,53.2184,357.3895,68.3956,291.7253,0.00015931,2.249e-05,0.0,0 STARLINK-5003,1 53905U 22119V   23272.97844794  .00002249  00000-0  15931-3 0  9994,2 53905  53.2184 357.3895 0002035  68.3956 291.7253 15.08850554 57208,6917.848,95.437,541.121,538.305,0.0
53905.0,STARLINK-5003,PAYLOAD,2023-09-30 12:12:02,15.08855343,0.0001638,53.2183,355.0103,92.7004,267.4175,0.00028836,4.306e-05,0.0,0 STARLINK-5003,1 53905U 22119V   23273.50836416  .00004306  00000-0  28836-3 0  9990,2 53905  53.2183 355.0103 0001638  92.7004 267.4175 15.08855343 56862,6917.833,95.437,540.832,538.565,0.0
53905.0,STARLINK-5003,PAYLOAD,2023-10-01 10:27:26,15.08854049,0.000173,53.2184,350.8468,99.2414,260.8774,0.00023225,3.412e-05,0.0,0 STARLINK-5003,1 53905U 22119V   23274.43572143  .00003412  00000-0  23225-3 0  9991,2 53905  53.2184 350.8468 0001730  99.2414 260.8774 15.08854049 57001,6917.837,95.437,540.899,538.506,0.0
53905.0,STARLINK-5003,PAYLOAD,2023-10-01 12:02:49,15.08856529,0.0001617,53.2184,350.5517,84.096,276.0216,0.00031324,4.703e-05,0.0,0 STARLINK-5003,1 53905U 22119V   23274.50196119  .00004703  00000-0  31324-3 0  9997,2 53905  53.2184 350.5517 0001617  84.0960 276.0216 15.08856529 57437,6917.83,95.437,540.813,538.576,0.0
53905.0,STARLINK-5003,PAYLOAD,2023-10-01 21:35:08,15.08839595,0.0001722,53.2184,348.7642,87.4183,272.7006,-6.6828e-05,-1.351e-05,0.0,0 STARLINK-5003,1 53905U 22119V   23274.89940442 -.00001351  00000-0 -66828-4 0  9991,2 53905  53.2184 348.7642 0001722  87.4183 272.7006 15.08839595 57070,6917.882,95.438,540.938,538.555,0.0
53905.0,STARLINK-5003,PAYLOAD,2023-10-02 11:53:37,15.08832819,0.0001857,53.2183,346.0897,97.5445,262.5758,-9.2961e-05,-1.767e-05,0.0,0 STARLINK-5003,1 53905U 22119V   23275.49557084 -.00001767  00000-0 -92961-4 0  9992,2 53905  53.2183 346.0897 0001857  97.5445 262.5758 15.08832819 57167,6917.902,95.438,541.052,538.483,0.0
53905.0,STARLINK-5003,PAYLOAD,2023-10-03 11:44:24,15.08849847,0.0001781,53.2186,341.6301,103.7372,256.3818,0.00069324,0.00010765,0.0,0 STARLINK-5003,1 53905U 22119V   23276.48917168  .00010765  00000-0  69324-3 0  9997,2 53905  53.2186 341.6301 0001781 103.7372 256.3818 15.08849847 57310,6917.85,95.437,540.947,538.483,0.0
53905.0,STARLINK-5003,PAYLOAD,2023-10-04 03:38:15,15.08849573,0.0001523,53.2169,338.6575,101.5373,258.5791,0.00036683,5.556e-05,0.0,0 STARLINK-5003,1 53905U 22119V   23277.15156992  .00005556  00000-0  36683-3 0  9996,2 53905  53.2169 338.6575 0001523 101.5373 258.5791 15.08849573 57412,6917.851,95.437,540.77,538.663,0.0
53905.0,STARLINK-5003,PAYLOAD,2023-10-04 09:59:48,15.08842588,0.0001363,53.2166,337.4668,94.0841,266.0307,0.00012153,1.647e-05,0.0,0 STARLINK-5003,1 53905U 22119V   23277.41653151  .00001647  00000-0  12153-3 0  9997,2 53905  53.2166 337.4668 0001363  94.0841 266.0307 15.08842588 57457,6917.872,95.437,540.68,538.795,0.0
53905.0,STARLINK-5003,PAYLOAD,2023-10-04 11:35:11,15.08848605,0.0001471,53.2166,337.1677,89.3529,270.7632,0.00030283,4.536e-05,0.0,0 STARLINK-5003,1 53905U 22119V   23277.48277152  .00004536  00000-0  30283-3 0  9991,2 53905  53.2166 337.1677 0001471  89.3529 270.7632 15.08848605 57880,6917.854,95.437,540.737,538.701,0.0
53905.0,STARLINK-5003,PAYLOAD,2023-10-05 11:25:58,15.08849806,0.0001653,53.2171,332.7073,90.1711,269.9471,0.00025757,3.815e-05,0.0,0 STARLINK-5003,1 53905U 22119V   23278.47637121  .00003815  00000-0  25757-3 0  9996,2 53905  53.2171 332.7073 0001653  90.1711 269.9471 15.08849806 58035,6917.85,95.437,540.859,538.572,0.0
53905.0,STARLINK-5003,PAYLOAD,2023-10-05 20:58:17,15.08842684,0.0001667,53.2173,330.9237,87.6866,272.4317,0.00025171,3.72e-05,0.0,0 STARLINK-5003,1 53905U 22119V   23278.87381392  .00003720  00000-0  25171-3 0  9991,2 53905  53.2173 330.9237 0001667  87.6866 272.4317 15.08842684 58097,6917.872,95.437,540.89,538.584,0.0
